[{"OBJECT_NAME":"COSMOS 1953","OBJECT_ID":"1988-050A","EPOCH":"2026-03-05T07:18:57.842496","MEAN_MOTION":15.2843152,"ECCENTRICITY":0.00122839,"INCLINATION":82.5116,"RA_OF_ASC_NODE":162.6558,"ARG_OF_PERICENTER":136.4681,"MEAN_ANOMALY":223.753,"EPHEMERIS_TYPE":0,"CLASSIFICATION_TYPE":"U","NORAD_CAT_ID":19210,"ELEMENT_SET_NO":999,"REV_AT_EPOCH":3711,"BSTAR":0.00038026815,"MEAN_MOTION_DOT":0.0001058,"MEAN_MOTION_DDOT":0},{"OBJECT_NAME":"SL-8 R/B","OBJECT_ID":"1988-053B","EPOCH":"2026-03-05T06:39:38.926368","MEAN_MOTION":14.38912806,"ECCENTRICITY":0.00213562,"INCLINATION":74.0467,"RA_OF_ASC_NODE":120.5996,"ARG_OF_PERICENTER":300.5261,"MEAN_ANOMALY":126.3043,"EPHEMERIS_TYPE":0,"CLASSIFICATION_TYPE":"U","NORAD_CAT_ID":19257,"ELEMENT_SET_NO":999,"REV_AT_EPOCH":97596,"BSTAR":0.00012503195,"MEAN_MOTION_DOT":3.6e-6,"MEAN_MOTION_DDOT":0},{"OBJECT_NAME":"COSMOS 1975","OBJECT_ID":"1988-093A","EPOCH":"2026-03-05T04:57:03.760128","MEAN_MOTION":15.27991467,"ECCENTRICITY":0.0011791,"INCLINATION":82.5193,"RA_OF_ASC_NODE":122.186,"ARG_OF_PERICENTER":178.7027,"MEAN_ANOMALY":181.4246,"EPHEMERIS_TYPE":0,"CLASSIFICATION_TYPE":"U","NORAD_CAT_ID":19573,"ELEMENT_SET_NO":999,"REV_AT_EPOCH":1872,"BSTAR":0.00033406633,"MEAN_MOTION_DOT":9.172e-5,"MEAN_MOTION_DDOT":0},{"OBJECT_NAME":"SL-14 R/B","OBJECT_ID":"1988-093B","EPOCH":"2026-03-05T03:48:45.396864","MEAN_MOTION":14.85649771,"ECCENTRICITY":0.00220298,"INCLINATION":82.5297,"RA_OF_ASC_NODE":46.2973,"ARG_OF_PERICENTER":55.681,"MEAN_ANOMALY":54.6212,"EPHEMERIS_TYPE":0,"CLASSIFICATION_TYPE":"U","NORAD_CAT_ID":19574,"ELEMENT_SET_NO":999,"REV_AT_EPOCH":34,"BSTAR":8.4078557e-5,"MEAN_MOTION_DOT":7.56e-6,"MEAN_MOTION_DDOT":0},{"OBJECT_NAME":"SL-16 R/B","OBJECT_ID":"1988-102B","EPOCH":"2026-03-04T23:03:05.425344","MEAN_MOTION":14.16149624,"ECCENTRICITY":0.00136561,"INCLINATION":71,"RA_OF_ASC_NODE":161.4472,"ARG_OF_PERICENTER":8.8749,"MEAN_ANOMALY":351.2613,"EPHEMERIS_TYPE":0,"CLASSIFICATION_TYPE":"U","NORAD_CAT_ID":19650,"ELEMENT_SET_NO":999,"REV_AT_EPOCH":92622,"BSTAR":6.4343592e-5,"MEAN_MOTION_DOT":8.0e-7,"MEAN_MOTION_DDOT":0},{"OBJECT_NAME":"INTERCOSMOS 24","OBJECT_ID":"1989-080A","EPOCH":"2026-03-05T04:41:45.396384","MEAN_MOTION":12.59550002,"ECCENTRICITY":0.11867808,"INCLINATION":82.6031,"RA_OF_ASC_NODE":107.331,"ARG_OF_PERICENTER":303.2615,"MEAN_ANOMALY":46.0157,"EPHEMERIS_TYPE":0,"CLASSIFICATION_TYPE":"U","NORAD_CAT_ID":20261,"ELEMENT_SET_NO":999,"REV_AT_EPOCH":66623,"BSTAR":0.00027833934,"MEAN_MOTION_DOT":9.36e-6,"MEAN_MOTION_DDOT":0},{"OBJECT_NAME":"SL-14 R/B","OBJECT_ID":"1989-080C","EPOCH":"2026-03-05T07:33:15.944832","MEAN_MOTION":12.5048746,"ECCENTRICITY":0.12304028,"INCLINATION":82.5971,"RA_OF_ASC_NODE":175.9938,"ARG_OF_PERICENTER":194.7467,"MEAN_ANOMALY":161.4477,"EPHEMERIS_TYPE":0,"CLASSIFICATION_TYPE":"U","NORAD_CAT_ID":20262,"ELEMENT_SET_NO":999,"REV_AT_EPOCH":65960,"BSTAR":0.00026421669,"MEAN_MOTION_DOT":8.87e-6,"MEAN_MOTION_DDOT":0},{"OBJECT_NAME":"DELTA 1 R/B","OBJECT_ID":"1989-089B","EPOCH":"2026-03-05T03:17:49.877376","MEAN_MOTION":14.50658716,"ECCENTRICITY":0.00701832,"INCLINATION":97.0708,"RA_OF_ASC_NODE":272.3001,"ARG_OF_PERICENTER":136.1542,"MEAN_ANOMALY":224.5257,"EPHEMERIS_TYPE":0,"CLASSIFICATION_TYPE":"U","NORAD_CAT_ID":20323,"ELEMENT_SET_NO":999,"REV_AT_EPOCH":89507,"BSTAR":0.00011937423,"MEAN_MOTION_DOT":4.49e-6,"MEAN_MOTION_DDOT":0},{"OBJECT_NAME":"ARIANE 40 R/B","OBJECT_ID":"1990-005H","EPOCH":"2026-03-05T03:46:58.493280","MEAN_MOTION":14.39866832,"ECCENTRICITY":0.00095752,"INCLINATION":98.3093,"RA_OF_ASC_NODE":124.954,"ARG_OF_PERICENTER":212.6038,"MEAN_ANOMALY":147.4561,"EPHEMERIS_TYPE":0,"CLASSIFICATION_TYPE":"U","NORAD_CAT_ID":20443,"ELEMENT_SET_NO":999,"REV_AT_EPOCH":89215,"BSTAR":0.00012155689,"MEAN_MOTION_DOT":3.4e-6,"MEAN_MOTION_DDOT":0},{"OBJECT_NAME":"DELTA 2 R/B(1)","OBJECT_ID":"1990-008B","EPOCH":"2026-03-04T18:05:34.725696","MEAN_MOTION":15.55228084,"ECCENTRICITY":0.00865053,"INCLINATION":35.6042,"RA_OF_ASC_NODE":207.2295,"ARG_OF_PERICENTER":213.0642,"MEAN_ANOMALY":146.4665,"EPHEMERIS_TYPE":0,"CLASSIFICATION_TYPE":"U","NORAD_CAT_ID":20453,"ELEMENT_SET_NO":999,"REV_AT_EPOCH":92536,"BSTAR":0.0010409721,"MEAN_MOTION_DOT":0.00086998,"MEAN_MOTION_DDOT":0},{"OBJECT_NAME":"COSMOS 2058","OBJECT_ID":"1990-010A","EPOCH":"2026-03-04T21:08:39.302016","MEAN_MOTION":15.11269021,"ECCENTRICITY":0.00097445,"INCLINATION":82.4668,"RA_OF_ASC_NODE":52.1652,"ARG_OF_PERICENTER":359.3865,"MEAN_ANOMALY":0.7351,"EPHEMERIS_TYPE":0,"CLASSIFICATION_TYPE":"U","NORAD_CAT_ID":20465,"ELEMENT_SET_NO":999,"REV_AT_EPOCH":94151,"BSTAR":0.00032707925,"MEAN_MOTION_DOT":5.535e-5,"MEAN_MOTION_DDOT":0},{"OBJECT_NAME":"SL-14 R/B","OBJECT_ID":"1990-010B","EPOCH":"2026-03-05T07:16:07.564512","MEAN_MOTION":14.83564652,"ECCENTRICITY":0.00188043,"INCLINATION":82.4991,"RA_OF_ASC_NODE":271.5106,"ARG_OF_PERICENTER":317.6916,"MEAN_ANOMALY":42.2847,"EPHEMERIS_TYPE":0,"CLASSIFICATION_TYPE":"U","NORAD_CAT_ID":20466,"ELEMENT_SET_NO":999,"REV_AT_EPOCH":92783,"BSTAR":6.5682464e-5,"MEAN_MOTION_DOT":5.66e-6,"MEAN_MOTION_DDOT":0},{"OBJECT_NAME":"SL-14 R/B","OBJECT_ID":"1990-018B","EPOCH":"2026-03-05T04:21:18.609696","MEAN_MOTION":14.8213896,"ECCENTRICITY":0.00176201,"INCLINATION":82.5194,"RA_OF_ASC_NODE":227.3036,"ARG_OF_PERICENTER":105.7341,"MEAN_ANOMALY":254.5819,"EPHEMERIS_TYPE":0,"CLASSIFICATION_TYPE":"U","NORAD_CAT_ID":20511,"ELEMENT_SET_NO":999,"REV_AT_EPOCH":92191,"BSTAR":8.2730238e-5,"MEAN_MOTION_DOT":6.84e-6,"MEAN_MOTION_DDOT":0},{"OBJECT_NAME":"HST","OBJECT_ID":"1990-037B","EPOCH":"2026-03-05T02:44:22.473600","MEAN_MOTION":15.2939758,"ECCENTRICITY":0.00017647,"INCLINATION":28.4704,"RA_OF_ASC_NODE":71.2102,"ARG_OF_PERICENTER":80.5855,"MEAN_ANOMALY":279.494,"EPHEMERIS_TYPE":0,"CLASSIFICATION_TYPE":"U","NORAD_CAT_ID":20580,"ELEMENT_SET_NO":999,"REV_AT_EPOCH":77261,"BSTAR":0.00032208786,"MEAN_MOTION_DOT":9.685e-5,"MEAN_MOTION_DDOT":0},{"OBJECT_NAME":"SL-16 R/B","OBJECT_ID":"1990-046B","EPOCH":"2026-03-05T02:27:12.205440","MEAN_MOTION":14.15014108,"ECCENTRICITY":0.00161776,"INCLINATION":70.9998,"RA_OF_ASC_NODE":307.5493,"ARG_OF_PERICENTER":305.7503,"MEAN_ANOMALY":54.2114,"EPHEMERIS_TYPE":0,"CLASSIFICATION_TYPE":"U","NORAD_CAT_ID":20625,"ELEMENT_SET_NO":999,"REV_AT_EPOCH":84774,"BSTAR":-8.3727192e-5,"MEAN_MOTION_DOT":-2.1e-6,"MEAN_MOTION_DDOT":0},{"OBJECT_NAME":"COSMOS 2084","OBJECT_ID":"1990-055A","EPOCH":"2026-03-05T04:56:15.310464","MEAN_MOTION":15.05618559,"ECCENTRICITY":0.00178033,"INCLINATION":62.7926,"RA_OF_ASC_NODE":350.8703,"ARG_OF_PERICENTER":188.8719,"MEAN_ANOMALY":171.207,"EPHEMERIS_TYPE":0,"CLASSIFICATION_TYPE":"U","NORAD_CAT_ID":20663,"ELEMENT_SET_NO":999,"REV_AT_EPOCH":93564,"BSTAR":0.00028026587,"MEAN_MOTION_DOT":3.876e-5,"MEAN_MOTION_DDOT":0},{"OBJECT_NAME":"SL-6 R/B(2)","OBJECT_ID":"1990-055D","EPOCH":"2026-03-04T23:35:07.685376","MEAN_MOTION":15.03567239,"ECCENTRICITY":0.00240289,"INCLINATION":62.7816,"RA_OF_ASC_NODE":269.8581,"ARG_OF_PERICENTER":345.8711,"MEAN_ANOMALY":14.1714,"EPHEMERIS_TYPE":0,"CLASSIFICATION_TYPE":"U","NORAD_CAT_ID":20666,"ELEMENT_SET_NO":999,"REV_AT_EPOCH":93748,"BSTAR":0.00019910052,"MEAN_MOTION_DOT":2.548e-5,"MEAN_MOTION_DDOT":0}]
