COSMOS 1953             
1 19210U 88050A   26064.30483614  .00010580  00000+0  38027-3 0  9997
2 19210  82.5116 162.6558 0012283 136.4681 223.7530 15.28431520 37111
SL-8 R/B                
1 19257U 88053B   26064.27753387  .00000360  00000+0  12503-3 0  9990
2 19257  74.0467 120.5996 0021356 300.5261 126.3043 14.38912806975967
COSMOS 1975             
1 19573U 88093A   26064.20629352  .00009172  00000+0  33407-3 0  9998
2 19573  82.5193 122.1860 0011791 178.7027 181.4246 15.27991467 18721
SL-14 R/B               
1 19574U 88093B   26064.15885876  .00000756  00000+0  84079-4 0  9999
2 19574  82.5297  46.2973 0022029  55.6810  54.6212 14.85649771   341
SL-16 R/B               
1 19650U 88102B   26063.96047946  .00000080  00000+0  64344-4 0  9994
2 19650  71.0000 161.4472 0013656   8.8749 351.2613 14.16149624926223
INTERCOSMOS 24          
1 20261U 89080A   26064.19566431  .00000936  00000+0  27834-3 0  9993
2 20261  82.6031 107.3310 1186780 303.2615  46.0157 12.59550002666234
SL-14 R/B               
1 20262U 89080C   26064.31476788  .00000887  00000+0  26422-3 0  9990
2 20262  82.5971 175.9938 1230402 194.7467 161.4477 12.50487460659601
DELTA 1 R/B             
1 20323U 89089B   26064.13738284  .00000449  00000+0  11937-3 0  9998
2 20323  97.0708 272.3001 0070183 136.1542 224.5257 14.50658716895078
ARIANE 40 R/B           
1 20443U 90005H   26064.15762145  .00000340  00000+0  12156-3 0  9990
2 20443  98.3093 124.9540 0009575 212.6038 147.4561 14.39866832892153
DELTA 2 R/B(1)          
1 20453U 90008B   26063.75387414  .00086998  00000+0  10410-2 0  9994
2 20453  35.6042 207.2295 0086505 213.0642 146.4665 15.55228084925362
COSMOS 2058             
1 20465U 90010A   26063.88101044  .00005535  00000+0  32708-3 0  9990
2 20465  82.4668  52.1652 0009744 359.3865   0.7351 15.11269021941511
SL-14 R/B               
1 20466U 90010B   26064.30286533  .00000566  00000+0  65682-4 0  9993
2 20466  82.4991 271.5106 0018804 317.6916  42.2847 14.83564652927839
SL-14 R/B               
1 20511U 90018B   26064.18146539  .00000684  00000+0  82730-4 0  9993
2 20511  82.5194 227.3036 0017620 105.7341 254.5819 14.82138960921918
HST                     
1 20580U 90037B   26064.11414900  .00009685  00000+0  32209-3 0  9998
2 20580  28.4704  71.2102 0001764  80.5855 279.4940 15.29397580772611
SL-16 R/B               
1 20625U 90046B   26064.10222460 -.00000210  00000+0 -83727-4 0  9994
2 20625  70.9998 307.5493 0016177 305.7503  54.2114 14.15014108847747
COSMOS 2084             
1 20663U 90055A   26064.20573276  .00003876  00000+0  28027-3 0  9991
2 20663  62.7926 350.8703 0017803 188.8719 171.2070 15.05618559935648
SL-6 R/B(2)             
1 20666U 90055D   26063.98272784  .00002548  00000+0  19910-3 0  9994
2 20666  62.7816 269.8581 0024028 345.8711  14.1714 15.03567239937486
